# Made by eph2tle, compiled Dec 19 2021 16:19:15
# Run at Tue Dec 21 16:02:45 2021
#
#    The following TLEs (Two-Line Elements) were generated by fitting
# a numerically-integrated ephemeris,  based on the orbit given below,
# to the SDP4/SGP4 models.  Each TLE is good for the interval between
# its epoch and the epoch of the subsequent TLE (usually one day).
# The maximum deviation between the numerically integrated ephemerides
# and the TLE-based ephemeris, in kilometers,  is given for each TLE
# as the "worst residual".
#
#    This fitting is done using the 'eph2tle' code packaged with Find_Orb.
# The code has details on how the TLEs were computed :
#
#    https://github.com/Bill-Gray/find_orb/eph2tle.cpp
#
#    Be warned:  the error given is that between the numerically
# integrated ephems and the TLE model.  There will usually be at
# least some additional difference between the ephems and the actual
# motion of the satellite,  especially if the ephemerides are based
# on a short arc.  If the following orbital elements say something
# like "[based on] 10 observations 2015 Jan. 1-13",  and the TLEs
# are for 2015 May,  the extrapolation may be tenuous at best.  If
# your application requires a specific level of accuracy,  you may
# want to contact me;  I can give you some idea as to the fit of the
# underlying data (and possibly TLEs based on newer data).
#
#   You can usually find the underlying observational data,  and the
# fitted orbit,  residuals,  ephemerides,  and sometimes some comments
# about the object,  among the pages listed at
#
#    https://www.projectpluto.com/pluto/mpecs/pseudo.htm
#
#    WARNING:  for this object,  "normal" TLEs cannot be fitted.  (This
# usually means an object with an hyperbolic or nearly-parabolic orbit.)
# For this and similar cases,   an alternative model is used,  in which
# most of the traditional TLE data is replaced by six signed 8-digit hex
# numbers.  These six numbers are a state vector,  numerically integrated
# using a simplified force model.  This is necessary for objects at L2 or
# L1,  and sometimes for objects in high orbits where the SDP4/SGP4 model
# fails.  I'll be posting source code for this.  But be aware:  it's my
# own extension,  doesn't work with other code,  and is therefore used
# only when necessary.
#
#    Also,  if you use a TLE outside the "correct" time range (between
# its MJD and that of the next TLE),  all bets are off.  I've carefully
# computed and minimized the worst error over the "correct" time frame,
# but the ephemeris may (or may not) diverge wildly outside of it.
#
# Ephem range: 59580.000000 59945.000000 1.000000
# Created Tue Dec 21 16:02:28 2021
# Ephemeris start:  1 Jan 2022  0:00:00
# Ephemeris end:    1 Jan 2023  0:00:00
# Times are all TDT
# Positions/velocities are in equatorial J2000
# Orbital elements:  2019-040A = NORAD 44432 = Spektr-RG
#    Perihelion 2021 Dec 17.332041 +/- 0.00403 TT =  7:58:08.3 (JD 2459565.832041)
# Epoch 2021 Dec 12.0 TT; AMR 0.014744 +/- 0.00795 m^2/kg   Earth MOID: 0.0093
# M 355.017503114 +/- 0.0038          (J2000 ecliptic)          Find_Orb
# n   0.934444610 +/- 1.32e-5         Peri.   24.554688 +/- 0.0050
# a   1.036176345 +/- 9.77e-6         Node    60.970027 +/- 0.0009
# e   0.04093875 +/- 6.84e-6          Incl.    0.361135 +/- 0.00009
# P   1.05/385.25d           H 27.4   G  0.15   U  5.2
# q 0.993756575 +/- 2.28e-6    Q 1.078596115 +/- 1.73e-5
# 50 of 209 observations 2021 Nov. 27-Dec. 17; mean residual 0".606
#
# 1 NoradU COSPAR   Epoch.epoch     dn/dt/2  d2n/dt2/6 BSTAR    T El# C
# 2 NoradU Inclina RAAscNode Eccent  ArgPeri MeanAno  MeanMotion Rev# C

# Worst residual: 0.50 km
# MJD 59580.000000 (2022 Jan  1  0:00)
2019-040A = NORAD 44432 = Spektr-RG
1 44432U 19040A   21365.99919926 -00B93I0D +00HZJZL7 +00HM12Q3H 14510
2 44432                          -0000KZC9 -0000EXMM +0000BJMC     00

# Worst residual: 0.64 km
# MJD 59581.000000 (2022 Jan  2  0:00)
2019-040A = NORAD 44432 = Spektr-RG
1 44432U 19040A   22001.99919926 -00BE06RV +00HW43O1 +00HOP3PFH 14510
2 44432                          -0000JYA6 -0000DQG8 +0000AORT     05

# Worst residual: 0.77 km
# MJD 59582.000000 (2022 Jan  3  0:00)
2019-040A = NORAD 44432 = Spektr-RG
1 44432U 19040A   22002.99919926 -00BIOZPI +00HSYO3S +00HR5SDGH 14512
2 44432                          -0000J5N3 -0000CITT +00009UAE     08

# Worst residual: 0.74 km
# MJD 59583.000000 (2022 Jan  4  0:00)
2019-040A = NORAD 44432 = Spektr-RG
1 44432U 19040A   22003.99919926 -00BN7WI3 +00HQ3KLW +00HTF40LH 14512
2 44432                          -0000IL21 -0000BCM2 +00008ZA4     08

# Worst residual: 0.58 km
# MJD 59584.000000 (2022 Jan  5  0:00)
2019-040A = NORAD 44432 = Spektr-RG
1 44432U 19040A   22004.99919926 -00BRMQSJ +00HNIA3L +00HVGUL8H 14517
2 44432                          -0000I7IN -0000A9C0 +000082YO     07

# Worst residual: 0.51 km
# MJD 59585.000000 (2022 Jan  6  0:00)
2019-040A = NORAD 44432 = Spektr-RG
1 44432U 19040A   22005.99919926 -00BVZ1J3 +00HL5YDT +00HXAM3NH 14519
2 44432                          -0000HZLX -00009A0N +000074R7     08

# Worst residual: 0.29 km
# MJD 59586.000000 (2022 Jan  7  0:00)
2019-040A = NORAD 44432 = Spektr-RG
1 44432U 19040A   22006.99919926 -00C09YOX +00HJ1KOU +00HYVWM7H 14515
2 44432                          -0000HVSD -00008F60 +000064BR     05

# Worst residual: 0.27 km
# MJD 59587.000000 (2022 Jan  8  0:00)
2019-040A = NORAD 44432 = Spektr-RG
1 44432U 19040A   22007.99919926 -00C4KB86 +00HH41VU +00I086APH 14516
2 44432                          -0000HULX -00007OUL +000051K4     08

# Worst residual: 0.38 km
# MJD 59588.000000 (2022 Jan  9  0:00)
2019-040A = NORAD 44432 = Spektr-RG
1 44432U 19040A   22008.99919926 -00C8UKGK +00HFCBM2 +00I1AV1AH 14512
2 44432                          -0000HUU7 -000072U8 +00003WHV     08

# Worst residual: 0.61 km
# MJD 59589.000000 (2022 Jan 10  0:00)
2019-040A = NORAD 44432 = Spektr-RG
1 44432U 19040A   22009.99919926 -00CD4Y3O +00HDPE8Y +00I23FKBH 14511
2 44432                          -0000HVHE -00006KR1 +00002PA3     03

# Worst residual: 0.79 km
# MJD 59590.000000 (2022 Jan 11  0:00)
2019-040A = NORAD 44432 = Spektr-RG
1 44432U 19040A   22010.99919926 -00CHFG81 +00HC6DV7 +00I2LE2TH 14519
2 44432                          -0000HVRD -0000664I +00001G3N     01

# Worst residual: 0.90 km
# MJD 59591.000000 (2022 Jan 12  0:00)
2019-040A = NORAD 44432 = Spektr-RG
1 44432U 19040A   22011.99919926 -00CLPWVT +00HAQIMC +00I2SAJCH 14516
2 44432                          -0000HV1Y -00005UHB +0000056B     08

# Worst residual: 0.93 km
# MJD 59592.000000 (2022 Jan 13  0:00)
2019-040A = NORAD 44432 = Spektr-RG
1 44432U 19040A   22012.99919926 -00CQ01DU +00H9D4U9 +00I2NQT3H 14513
2 44432                          -0000HSVF -00005LC0 -0000179U     04

# Worst residual: 0.93 km
# MJD 59593.000000 (2022 Jan 14  0:00)
2019-040A = NORAD 44432 = Spektr-RG
1 44432U 19040A   22013.99919926 -00CU9F7G +00H81P2Q +00I27ER2H 14514
2 44432                          -0000HOTJ -00005E6T -00002L09     04

# Worst residual: 0.94 km
# MJD 59594.000000 (2022 Jan 15  0:00)
2019-040A = NORAD 44432 = Spektr-RG
1 44432U 19040A   22014.99919926 -00CYHKSY +00H6RS7M +00I1F0CUH 14511
2 44432                          -0000HILB -000058JB -00003ZRP     08

# Worst residual: 0.99 km
# MJD 59595.000000 (2022 Jan 16  0:00)
2019-040A = NORAD 44432 = Spektr-RG
1 44432U 19040A   22015.99919926 -00D2NYDZ +00H5J3P8 +00I0ABYCH 14516
2 44432                          -0000H9Z6 -000053TS -00005F9T     09

# Worst residual: 1.08 km
# MJD 59596.000000 (2022 Jan 17  0:00)
2019-040A = NORAD 44432 = Spektr-RG
1 44432U 19040A   22016.99919926 -00D6RYTS +00H4BHW9 +00HYT8IYH 14516
2 44432                          -0000GYVL -00004ZH2 -00006V6S     00

# Worst residual: 1.18 km
# MJD 59597.000000 (2022 Jan 18  0:00)
2019-040A = NORAD 44432 = Spektr-RG
1 44432U 19040A   22017.99919926 -00DAT0P7 +00H34YF4 +00HWZO2QH 14510
2 44432                          -0000GLBR -00004UUH -00008B5B     09

# Worst residual: 1.28 km
# MJD 59598.000000 (2022 Jan 19  0:00)
2019-040A = NORAD 44432 = Spektr-RG
1 44432U 19040A   22018.99919926 -00DEQJHT +00H1ZMGW +00HUTNZ0H 14512
2 44432                          -0000G5I4 -00004PAD -00009QQQ     04

# Worst residual: 1.37 km
# MJD 59599.000000 (2022 Jan 20  0:00)
2019-040A = NORAD 44432 = Spektr-RG
1 44432U 19040A   22019.99919926 -00DIK0W8 +00H0VSX6 +00HSBD64H 14516
2 44432                          -0000FNQM -00004I59 -0000B5JY     05

# Worst residual: 1.44 km
# MJD 59600.000000 (2022 Jan 21  0:00)
2019-040A = NORAD 44432 = Spektr-RG
1 44432U 19040A   22020.99919926 -00DM924Q +00GZTY4L +00HPH076H 14516
2 44432                          -0000F4IU -000048TB -0000CJ6G     04

# Worst residual: 1.51 km
# MJD 59601.000000 (2022 Jan 22  0:00)
2019-040A = NORAD 44432 = Spektr-RG
1 44432U 19040A   22021.99919926 -00DPTDCP +00GYUNBG +00HMAWWUH 14515
2 44432                          -0000EKI8 -00003WRY -0000DV98     00

# Worst residual: 1.57 km
# MJD 59602.000000 (2022 Jan 23  0:00)
2019-040A = NORAD 44432 = Spektr-RG
1 44432U 19040A   22022.99919926 -00DT8V11 +00GXYLMU +00HITI10H 14517
2 44432                          -0000E0HZ -00003HNF -0000F5HI     00

# Worst residual: 1.55 km
# MJD 59603.000000 (2022 Jan 24  0:00)
2019-040A = NORAD 44432 = Spektr-RG
1 44432U 19040A   22023.99919926 -00DWJNAW +00GX6KTA +00HF18J1H 14513
2 44432                          -0000DHGS -00002Z81 -0000GDNA     03

# Worst residual: 1.44 km
# MJD 59604.000000 (2022 Jan 25  0:00)
2019-040A = NORAD 44432 = Spektr-RG
1 44432U 19040A   22024.99919926 -00DZQ38X +00GWJDK0 +00HAYMXKH 14519
2 44432                          -0000D0I7 -00002DHP -0000HJLU     01

# Worst residual: 1.20 km
# MJD 59605.000000 (2022 Jan 26  0:00)
2019-040A = NORAD 44432 = Spektr-RG
1 44432U 19040A   22025.99919926 -00E2STWD +00GW1RJM +00H6M8EOH 14516
2 44432                          -0000CMTF -00001OPB -0000INCN     03

